A/2018 W3,e,104.8217,251.6742,313.9642,698.4969,0.0000534,0.99385783,0.0000,04/13.0687/2021,2000,g 10.5,2.0
# From MPC119996
C/2018 X2 (Fitzsimmons),e,23.0738,340.7998,161.9465,139.5060,0.0005982,0.98480394,0.0000,07/08.3174/2019,2000,g 12.0,4.0
# From MPC114604
C/2018 X3 (PANSTARRS),e,43.4134,78.8206,359.7546,12.37685,0.0226354,0.78257223,35.3054,04/09.0/2023,2000,g 14.5,4.0
# From MPC118842
C/2018 Y1 (Iwamoto),e,160.4140,147.4772,357.9070,129.8674,0.0006660,0.99011286,0.0000,02/05.7549/2019,2000,g 11.5,4.0
# From MPC114605
P/2018 Y2 (Africano),e,11.6848,297.1993,162.2473,7.453376,0.0484367,0.47931052,75.4655,04/09.0/2023,2000,g 11.5,4.0
# From MPC114605
P/2019 A1 (PANSTARRS),e,13.7527,312.2585,150.7118,5.116093,0.0851719,0.56922217,139.7464,04/09.0/2023,2000,g 16.0,4.0
# From MPEC 2021-P47
P/2019 A2 (ATLAS),e,14.8614,139.4427,323.8544,5.713735,0.0721645,0.38222688,115.4860,04/09.0/2023,2000,g 10.5,4.0
# From MPEC 2022-M21
P/2019 A3 (PANSTARRS),e,15.3751,31.2938,325.6700,3.144111,0.1767899,0.26608152,301.9163,04/09.0/2023,2000,g 16.0,4.0
# From MPEC 2022-L66
P/2019 A4 (PANSTARRS),e,13.3063,119.2431,343.0280,2.613490,0.2332774,0.08711708,8.5500,04/09.0/2023,2000,g 15.0,4.0
# From MPEC 2021-P47
C/2019 A5 (PANSTARRS),e,67.5518,146.6037,355.8006,21.48733,0.0098953,0.70613656,13.8770,04/09.0/2023,2000,g  9.5,4.0
# From MPC114605
P/2019 A6 (Lemmon-PANSTARRS),e,33.2689,280.1938,156.1939,5.357680,0.0794765,0.63993858,133.7395,04/09.0/2023,2000,g 16.0,4.0
# From MPC115884
P/2019 A8 (PANSTARRS),e,2.1841,114.0404,65.9242,4.295810,0.1106972,0.23648609,192.6988,04/09.0/2023,2000,g 16.0,4.0
# From MPC118842
C/2019 A9 (PANSTARRS),e,84.2605,278.4108,237.9196,39.14168,0.0040248,0.96344760,5.4457,04/09.0/2023,2000,g 15.0,4.0
# From MPEC 2022-L66
C/2019 B1 (Africano),e,123.4132,290.3669,174.7698,137.7757,0.0006095,0.98840147,0.0000,03/18.6284/2019,2000,g 16.0,4.0
# From MPC115885
P/2019 B2 (Groeller),e,17.0096,175.7473,1.0036,3.914620,0.1272535,0.36033396,179.6268,04/09.0/2023,2000,g 14.5,4.0
# From MPEC 2022-YB4
C/2019 B3 (PANSTARRS),e,66.5384,358.4334,263.9661,126291,0.0000000,0.99994596,0.0000,01/20.3571/2021,2000,g  5.5,4.0
# From MPEC 2021-P47
C/2019 C1 (ATLAS),e,36.0507,212.3916,319.0759,646.5780,0.0000599,0.98982938,0.0000,05/04.3113/2020,2000,g 10.0,4.0
# From MPEC 2022-O08
C/2019 D1 (Flewelling),e,34.0096,231.6617,70.6836,142.3607,0.0005803,0.98885993,0.0000,05/11.1657/2019,2000,g 13.0,4.0
# From MPEC 2023-G31
C/2019 E3 (ATLAS),e,84.2972,347.2458,280.6846,35799,0.0000001,0.99971192,0.0000,11/14.9278/2023,2000,g  2.5,4.0
# From MPEC 2023-CD7
C/2019 F1 (ATLAS-Africano),h,06/23.0237/2021,54.2240,38.6693,251.2891,1.003114,3.601441,2000,5.5,4.0
# From MPEC 2021-P47
C/2019 F2 (ATLAS),e,19.2709,175.4579,11.6223,16.62629,0.0145382,0.86490793,19.0318,04/09.0/2023,2000,g 12.0,4.0
# From MPEC 2021-P47
A/2019 G2,e,159.2135,208.1597,82.6048,441.0311,0.0001064,0.99479916,0.0000,12/08.5756/2019,2000,g 16.5,2.0
# From MPEC 2022-VC5
A/2019 G3,e,156.8071,49.8942,161.9141,17.20601,0.0138097,0.83447154,21.9096,04/09.0/2023,2000,g 17.1,2.0
# From MPEC 2022-P82
C/2019 G4 (PANSTARRS),h,09/15.7463/2018,138.3528,130.4518,287.7663,1.001697,5.848657,2000,9.5,4.0
# From MPC114607
P/2019 GG21 (PANSTARRS),e,6.0862,340.5570,208.5982,7.469053,0.0482843,0.47187422,69.0425,04/09.0/2023,2000,g 12.0,4.0
# From MPEC 2022-M21
C/2019 H1 (NEOWISE),e,104.4577,269.2689,19.3389,247.2435,0.0002535,0.99253799,0.0000,04/27.9716/2019,2000,g 15.5,4.0
# From MPEC 2023-A50
C/2019 J1 (Lemmon),e,24.5406,98.1581,167.7433,68.44033,0.0017407,0.96369220,2.5453,04/09.0/2023,2000,g 12.0,4.0
# From MPEC 2021-R75
C/2019 J2 (Palomar),e,105.2335,25.5610,98.6924,161.9291,0.0004783,0.98936670,0.0000,07/20.3548/2019,2000,g 13.0,4.0
# From MPC117071
C/2019 J3 (ATLAS),h,08/02.4139/2019,131.3540,270.6025,16.6096,1.000642,2.371141,2000,13.5,4.0
# From MPEC 2022-M21
C/2019 JU6 (ATLAS),h,06/01.8744/2019,148.3315,21.7658,94.9979,1.000045,2.044427,2000,14.5,4.0
# From MPEC 2022-O08
C/2019 K1 (ATLAS),e,87.0565,73.3397,265.7236,12378,0.0000007,0.99983731,0.0000,02/12.7219/2020,2000,g 10.0,4.0
# From MPC119997
C/2019 K4 (Ye),e,105.2969,180.1490,139.8777,1374,0.0000193,0.99834980,0.0000,06/15.6280/2019,2000,g 12.5,4.0
# From MPEC 2021-P47
C/2019 K5 (Young),e,15.3183,177.1319,175.1372,168.0644,0.0004524,0.98784918,0.0000,06/22.9988/2019,2000,g 13.0,4.0
# From MPEC 2021-P47
C/2019 K6 (PANSTARRS),e,132.3815,42.9944,187.5899,1569,0.0000159,0.99749882,0.0000,05/20.0135/2020,2000,g 11.5,4.0
# From MPEC 2023-FK0
C/2019 K7 (Smith),h,06/17.6033/2020,103.5324,307.9640,27.4020,1.000913,4.478293,2000,6.0,4.0
# From MPEC 2021-R75
C/2019 K8 (ATLAS),e,93.1435,291.0300,85.3805,2655,0.0000072,0.99879732,0.0000,07/21.7559/2019,2000,g 11.5,4.0
# From MPEC 2023-A50
C/2019 L1 (PANSTARRS),e,9.9800,254.4301,50.0515,9.840899,0.0319265,0.70539286,42.6965,04/09.0/2023,2000,g 13.5,4.0
# From MPC115886
C/2019 L2 (NEOWISE),e,152.2108,12.5483,18.8403,25.02623,0.0078725,0.93502803,11.5573,04/09.0/2023,2000,g 16.0,4.0
# From MPEC 2023-CD7
P/2019 LD2 (ATLAS),e,11.6206,179.5873,120.1004,5.221127,0.0826148,0.12661877,93.1808,04/09.0/2023,2000,g  8.5,4.0
# From MPEC 2023-G31
C/2019 L3 (ATLAS),h,01/09.6643/2022,48.3498,290.7774,171.6210,1.002100,3.554461,2000,4.5,4.0
# From MPC118095
C/2019 LB7 (Kleyna),e,164.2915,3.8878,336.5689,34.67354,0.0048273,0.92815390,7.1190,04/09.0/2023,2000,g 17.0,4.0
# From MPEC 2022-O08
P/2019 M2 (ATLAS),e,12.2711,307.6160,332.5526,3.028801,0.1869812,0.64742794,259.3782,04/09.0/2023,2000,g 21.2,4.0
# From MPC118095
C/2019 M3 (ATLAS),e,99.5133,154.9296,87.8937,7176,0.0000016,0.99966249,0.0000,12/31.9779/2018,2000,g 12.2,4.0
# From MPEC 2023-C45
C/2019 N1 (ATLAS),e,82.4313,13.5723,193.4193,1706,0.0000140,0.99900036,0.0000,12/01.3407/2020,2000,g  7.5,4.0
# From MPEC 2023-CD8
A/2019 N2,e,89.3884,276.1190,347.1961,1648,0.0000147,0.99881783,0.0000,08/22.7644/2019,2000,g 12.5,2.0
# From MPEC 2022-A21
C/2019 NJ3 (Lemmon),h,10/22.9255/2020,99.4194,142.4694,246.9106,1.002466,4.362789,2000,9.0,4.0
# From MPEC 2023-FK0
A/2019 O2,e,93.3073,48.2628,129.6393,57.89143,0.0022376,0.83274218,0.0040,04/09.0/2023,2000,g  9.5,2.0
# From MPEC 2023-G31
C/2019 O3 (Palomar),h,03/09.5680/2021,89.8188,300.4193,60.1278,1.004366,8.820957,2000,3.5,4.0
# From MPEC 2021-P47
A/2019 O4,e,115.0900,354.9095,61.9035,33.28204,0.0051332,0.89044607,5.9194,04/09.0/2023,2000,g 15.5,2.0
# From MPEC 2023-A50
C/2019 Q1 (Lemmon),h,07/20.7011/2020,155.7292,42.4606,56.1924,1.000724,5.002754,2000,8.5,4.0
# From MPC117072
A/2019 Q2,e,159.0295,188.0100,176.3896,57.85115,0.0022399,0.97817261,0.0000,07/22.1001/2019,2000,g 18.0,2.0
# From MPC117072
C/2019 Q3 (PANSTARRS),h,08/21.3729/2018,65.5386,151.3392,152.7942,1.002578,7.266094,2000,8.5,4.0
# From MPC117072
P/2019 S2 (PANSTARRS),e,10.4660,93.1392,217.1567,4.742726,0.0954250,0.20572235,143.8127,04/09.0/2023,2000,g 13.5,4.0
# From MPEC 2022-CN4
P/2019 S3 (PANSTARRS),e,8.6930,150.1519,213.0542,3.415392,0.1561505,0.47118700,206.2457,04/09.0/2023,2000,g 18.3,4.0
# From MPEC 2021-S45
C/2019 S4 (Lemmon),e,92.0800,63.1487,71.3765,234.1902,0.0002750,0.98530060,0.0000,04/08.0558/2020,2000,g 11.0,4.0
# From MPEC 2023-G31
A/2019 T1,e,120.8759,6.9448,91.0723,38.74294,0.0040871,0.88948849,3.3277,04/09.0/2023,2000,g 13.0,2.0
# From MPEC 2023-BF4
C/2019 T2 (Lemmon),e,111.4748,155.6497,239.4309,3963,0.0000040,0.99933224,0.0000,04/22.5255/2021,2000,g  9.0,4.0
# From MPEC 2022-WQ9
C/2019 T3 (ATLAS),e,121.8455,139.5318,112.4486,3354,0.0000051,0.99822557,0.0000,03/04.2509/2021,2000,g  6.8,4.0
# From MPEC 2023-G31
C/2019 T4 (ATLAS),e,53.6320,199.9391,351.1722,960.7104,0.0000331,0.99558451,0.0000,06/08.9576/2022,2000,g  5.0,4.0
# From MPEC 2021-P47
P/2019 T5 (ATLAS),e,33.4878,247.6257,189.5662,7.997290,0.0435803,0.80952542,58.6675,04/09.0/2023,2000,g 15.0,4.0
# From MPEC 2021-P47
P/2019 T6 (PANSTARRS),e,18.7019,71.2235,328.9964,5.437711,0.0777284,0.62305745,96.9619,04/09.0/2023,2000,g 15.5,4.0
# From MPC118096
P/2019 U4 (PANSTARRS),e,11.7006,200.0007,181.0280,3.520207,0.1492285,0.47601024,193.6196,04/09.0/2023,2000,g 19.0,4.0
# From MPEC 2023-G31
C/2019 U5 (PANSTARRS),h,03/29.8389/2023,113.5199,2.6374,181.4946,1.001459,3.624206,2000,4.5,4.0
# From MPEC 2022-H04
C/2019 U6 (Lemmon),e,60.9788,235.7595,329.5768,341.1206,0.0001564,0.99732234,0.0000,06/18.4389/2020,2000,g 10.0,4.0
# From MPEC 2022-N37
C/2019 V1 (Borisov),e,61.9054,83.1681,51.1629,1521,0.0000166,0.99796494,0.0000,07/16.4221/2020,2000,g 11.0,4.0
# From MPEC 2022-L66
P/2019 V2 (Groeller),e,11.8083,189.1850,335.7621,7.499938,0.0479863,0.33112481,43.3563,04/09.0/2023,2000,g 10.0,4.0
# From MPEC 2023-A50
P/2019 W1 (PANSTARRS),e,23.4749,35.3767,18.7233,4.549202,0.1015784,0.26708482,145.3548,04/09.0/2023,2000,g 12.9,4.0
# From MPEC 2021-P47
P/2019 X1 (Pruyne),e,10.2501,43.6648,36.8038,6.174118,0.0642454,0.30362949,87.1795,04/09.0/2023,2000,g 10.4,4.0
# From MPC119999
C/2019 Y1 (ATLAS),e,73.3558,31.5555,57.9148,86.46375,0.0012259,0.99041072,0.0000,03/15.9994/2020,2000,g 13.7,4.0
# From MPEC 2022-YN2
C/2019 Y4 (ATLAS),e,45.2340,120.6520,177.4533,354.4473,0.0001477,0.99928053,0.0000,05/30.8975/2020,2000,g 11.8,6.0
# From MPEC 2020-L06
C/2019 Y4-A (ATLAS),h,05/30.9243/2020,45.6770,121.0131,177.2871,1.001420,0.253167,2000,11.6,6.0
# From MPEC 2020-L06
C/2019 Y4-B (ATLAS),e,45.3131,120.7075,177.4200,1504,0.0000169,0.99983071,0.0000,05/30.9001/2020,2000,g 12.8,6.0
# From MPEC 2020-L06
C/2019 Y4-C (ATLAS),h,05/30.8790/2020,45.4593,120.7396,177.3205,1.002143,0.254234,2000,12.7,6.0
# From MPEC 2020-L06
C/2019 Y4-D (ATLAS),e,45.5038,121.1145,177.4584,68.44768,0.0017405,0.99629542,0.0000,05/31.0030/2020,2000,g 12.5,6.0
# From MPEC 2023-A50
C/2019 Y5 (PANSTARRS),e,82.7702,51.7580,303.5579,759.9948,0.0000470,0.99352687,0.0000,08/17.9778/2019,2000,g 11.0,4.0
# From MPEC 2023-A50
A/2020 A1,e,149.0377,119.2089,302.5194,25.67048,0.0075780,0.93507408,9.2727,04/09.0/2023,2000,g 18.0,2.0
# From MPEC 2022-YN2
